{"type": "FeatureCollection", "features": [{"type": "Feature", "properties": {"device": "d2197cc4-100a-4d49-b1c4-e596c18395b5", "color": "#C44E52", "kind": "move", "n": 5, "gap_label": ""}, "geometry": {"type": "LineString", "coordinates": [[110.738869, -7.897694], [110.738869, -7.897694], [110.738869, -7.897694], [110.738869, -7.897694], [110.712227, -7.98199]]}}, {"type": "Feature", "properties": {"device": "d2197cc4-100a-4d49-b1c4-e596c18395b5", "color": "#C44E52", "kind": "gap", "n": 2, "gap_label": ""}, "geometry": {"type": "LineString", "coordinates": [[110.712227, -7.98199], [110.385704, -7.798587]]}}, {"type": "Feature", "properties": {"device": "d2197cc4-100a-4d49-b1c4-e596c18395b5", "color": "#C44E52", "kind": "move", "n": 19, "gap_label": ""}, "geometry": {"type": "LineString", "coordinates": [[110.385704, -7.798587], [110.385704, -7.798587], [110.385704, -7.798587], [110.385704, -7.798587], [110.385704, -7.798587], [110.385704, -7.798587], [110.385704, -7.798587], [110.385704, -7.798587], [110.385704, -7.798587], [110.385704, -7.798587], [110.385704, -7.798587], [110.385704, -7.798587], [110.385704, -7.798587], [110.385704, -7.798587], [110.385704, -7.798587], [110.385704, -7.798587], [110.385704, -7.798587], [110.385704, -7.798587], [110.385704, -7.798587]]}}, {"type": "Feature", "properties": {"device": "d2197cc4-100a-4d49-b1c4-e596c18395b5", "color": "#C44E52", "kind": "gap", "n": 2, "gap_label": "+3h 40m"}, "geometry": {"type": "LineString", "coordinates": [[110.385704, -7.798587], [110.129997, -7.9]]}}, {"type": "Feature", "properties": {"device": "d2197cc4-100a-4d49-b1c4-e596c18395b5", "color": "#C44E52", "kind": "move", "n": 9, "gap_label": ""}, "geometry": {"type": "LineString", "coordinates": [[110.129997, -7.9], [110.129997, -7.9], [110.129997, -7.9], [110.129997, -7.9], [110.129997, -7.9], [110.129997, -7.9], [110.129997, -7.9], [110.129997, -7.9], [110.129997, -7.9]]}}, {"type": "Feature", "properties": {"device": "d2197cc4-100a-4d49-b1c4-e596c18395b5", "color": "#C44E52", "kind": "gap", "n": 2, "gap_label": ""}, "geometry": {"type": "LineString", "coordinates": [[110.129997, -7.9], [110.129997, -7.9]]}}, {"type": "Feature", "properties": {"device": "d2197cc4-100a-4d49-b1c4-e596c18395b5", "color": "#C44E52", "kind": "move", "n": 30, "gap_label": ""}, "geometry": {"type": "LineString", "coordinates": [[110.129997, -7.9], [110.129997, -7.9], [110.129997, -7.9], [110.129997, -7.9], [110.129997, -7.9], [110.129997, -7.9], [110.129997, -7.9], [110.129997, -7.9], [110.129997, -7.9], [110.129997, -7.9], [110.129997, -7.9], [110.129997, -7.9], [110.129997, -7.9], [110.129997, -7.9], [110.129997, -7.9], [110.129997, -7.9], [110.129997, -7.9], [110.129997, -7.9], [110.129997, -7.9], [110.129997, -7.9], [110.129997, -7.9], [110.129997, -7.9], [110.129997, -7.9], [110.129997, -7.9], [110.129997, -7.9], [110.129997, -7.9], [110.740379, -7.888215], [110.740379, -7.888215], [110.129997, -7.9], [110.129997, -7.9]]}}, {"type": "Feature", "properties": {"device": "6269bab5-eec8-4c04-bc76-2b4e34d983ce", "color": "#4C72B0", "kind": "gap", "n": 2, "gap_label": "+15h 30m"}, "geometry": {"type": "LineString", "coordinates": [[110.392113, -7.703757], [110.392113, -7.703757]]}}, {"type": "Feature", "properties": {"device": "6269bab5-eec8-4c04-bc76-2b4e34d983ce", "color": "#4C72B0", "kind": "move", "n": 32, "gap_label": ""}, "geometry": {"type": "LineString", "coordinates": [[110.392113, -7.703757], [110.330002, -7.87], [110.330002, -7.87], [110.330002, -7.87], [110.330002, -7.87], [110.330002, -7.87], [110.330002, -7.87], [110.330002, -7.87], [110.330002, -7.87], [110.330002, -7.87], [110.330002, -7.87], [110.330002, -7.87], [110.330002, -7.87], [110.330002, -7.87], [110.330002, -7.87], [110.330002, -7.87], [110.330002, -7.87], [110.330002, -7.87], [110.330002, -7.87], [110.39212, -7.70377], [110.39212, -7.70377], [110.392113, -7.703757], [110.392113, -7.703757], [110.39212, -7.70377], [110.392113, -7.70378], [110.392113, -7.70378], [110.392113, -7.70378], [110.392113, -7.703757], [110.392113, -7.703757], [110.379997, -7.92], [110.379997, -7.92], [110.379997, -7.92]]}}, {"type": "Feature", "properties": {"device": "6ebaf74a-b511-4334-af6f-43d5ea42e73b", "color": "#55A868", "kind": "move", "n": 349, "gap_label": ""}, "geometry": {"type": "LineString", "coordinates": [[110.412651, -7.76473], [110.412659, -7.76476], [110.412659, -7.76476], [110.412659, -7.76476], [110.412659, -7.76476], [110.412659, -7.76476], [110.412659, -7.76476], [110.412651, -7.76473], [110.412659, -7.76474], [110.412659, -7.76474], [110.412659, -7.76474], [110.412659, -7.76474], [110.412659, -7.76474], [110.412659, -7.76474], [110.412659, -7.76474], [110.412659, -7.764737], [110.412659, -7.76474], [110.412659, -7.76476], [110.412659, -7.76476], [110.412659, -7.76476], [110.412659, -7.764737], [110.412659, -7.76476], [110.412659, -7.76476], [110.412659, -7.76476], [110.412659, -7.76476], [110.412659, -7.76476], [110.412659, -7.764737], [110.412659, -7.76476], [110.412659, -7.76476], [110.412651, -7.76475], [110.412659, -7.764737], [110.412659, -7.76474], [110.412659, -7.764737], [110.412659, -7.76474], [110.412659, -7.764737], [110.412659, -7.764737], [110.412659, -7.764737], [110.412659, -7.764737], [110.412659, -7.76474], [110.412659, -7.764737], [110.412659, -7.764737], [110.412659, -7.764737], [110.412651, -7.76475], [110.412659, -7.76474], [110.412659, -7.764737], [110.412659, -7.764737], [110.412659, -7.76474], [110.412659, -7.764737], [110.412659, -7.764737], [110.412659, -7.764737], [110.412659, -7.76474], [110.412659, -7.76474], [110.412659, -7.76474], [110.412659, -7.764737], [110.412659, -7.76474], [110.412651, -7.76475], [110.412651, -7.76475], [110.412651, -7.76475], [110.412651, -7.76475], [110.412651, -7.76475], [110.412651, -7.76475], [110.412651, -7.76475], [110.412651, -7.76475], [110.412651, -7.76475], [110.412659, -7.76476], [110.412659, -7.764737], [110.412659, -7.76474], [110.412659, -7.76474], [110.412659, -7.76474], [110.412659, -7.76474], [110.412659, -7.76474], [110.412659, -7.764737], [110.412659, -7.76474], [110.412659, -7.76474], [110.412659, -7.76474], [110.412651, -7.76475], [110.412651, -7.76475], [110.412659, -7.764737], [110.412651, -7.76475], [110.412651, -7.76475], [110.412659, -7.76476], [110.412651, -7.76475], [110.412659, -7.76476], [110.412659, -7.76476], [110.412659, -7.76476], [110.412651, -7.76473], [110.412659, -7.764737], [110.412659, -7.764737], [110.412659, -7.764737], [110.412659, -7.764737], [110.412659, -7.764737], [110.412659, -7.76474], [110.412659, -7.76474], [110.412659, -7.76474], [110.412659, -7.76474], [110.412659, -7.76474], [110.412659, -7.76474], [110.412659, -7.76474], [110.412659, -7.76474], [110.412659, -7.76474], [110.412659, -7.76474], [110.412659, -7.76474], [110.412659, -7.764737], [110.412659, -7.764737], [110.412659, -7.764737], [110.412659, -7.76474], [110.412659, -7.76474], [110.412659, -7.76474], [110.412659, -7.764737], [110.412659, -7.76474], [110.412659, -7.76476], [110.412659, -7.764737], [110.412659, -7.764737], [110.412659, -7.764737], [110.412659, -7.764737], [110.412659, -7.764737], [110.412659, -7.764737], [110.412651, -7.76473], [110.412659, -7.764737], [110.412659, -7.764737], [110.412659, -7.764737], [110.412651, -7.764748], [110.412651, -7.764748], [110.412651, -7.76475], [110.412659, -7.764737], [110.412651, -7.76475], [110.412659, -7.764737], [110.412659, -7.764737], [110.412659, -7.764737], [110.412659, -7.764737], [110.412659, -7.76474], [110.412659, -7.76474], [110.412659, -7.764737], [110.412659, -7.76474], [110.412659, -7.76474], [110.412659, -7.764737], [110.412659, -7.76476], [110.412659, -7.76476], [110.412659, -7.76476], [110.412651, -7.76475], [110.412651, -7.76475], [110.412651, -7.76475], [110.412651, -7.76475], [110.412651, -7.76475], [110.412651, -7.76475], [110.412651, -7.76475], [110.412651, -7.76475], [110.412651, -7.76475], [110.412651, -7.76475], [110.412659, -7.76474], [110.412659, -7.76474], [110.412659, -7.764737], [110.412659, -7.76476], [110.412659, -7.76474], [110.412659, -7.76474], [110.412659, -7.76474], [110.412659, -7.76474], [110.412659, -7.76474], [110.412659, -7.764737], [110.412659, -7.76476], [110.412659, -7.76476], [110.412659, -7.76476], [110.412659, -7.76476], [110.412659, -7.76476], [110.412659, -7.76476], [110.412659, -7.764737], [110.412659, -7.76476], [110.412659, -7.76476], [110.412659, -7.76476], [110.412659, -7.76476], [110.412659, -7.76476], [110.412659, -7.76476], [110.412651, -7.764748], [110.412651, -7.764748], [110.412659, -7.764737], [110.412659, -7.764737], [110.412659, -7.764737], [110.412659, -7.764737], [110.412659, -7.764737], [110.412659, -7.764737], [110.412659, -7.76474], [110.412659, -7.76474], [110.412659, -7.76474], [110.412659, -7.76474], [110.412659, -7.764737], [110.412659, -7.76474], [110.412659, -7.76474], [110.412659, -7.76474], [110.412659, -7.764737], [110.412659, -7.76474], [110.412659, -7.764737], [110.412659, -7.76474], [110.412659, -7.76474], [110.412659, -7.76474], [110.412659, -7.76474], [110.412659, -7.76474], [110.412659, -7.76474], [110.412659, -7.76474], [110.412659, -7.76474], [110.412659, -7.76474], [110.412659, -7.76474], [110.412659, -7.76474], [110.412651, -7.76473], [110.412659, -7.764737], [110.412659, -7.764737], [110.412659, -7.764737], [110.412659, -7.76474], [110.412659, -7.764737], [110.412659, -7.76476], [110.412659, -7.76476], [110.412659, -7.764737], [110.369652, -7.77906], [110.369652, -7.779057], [110.369652, -7.779057], [110.369652, -7.77906], [110.369652, -7.779057], [110.369652, -7.779057], [110.369652, -7.77906], [110.369652, -7.779057], [110.369652, -7.779057], [110.369652, -7.779057], [110.369652, -7.779057], [110.369652, -7.779057], [110.369652, -7.779057], [110.369652, -7.779057], [110.369652, -7.779057], [110.369652, -7.77906], [110.369652, -7.77906], [110.369652, -7.77906], [110.369652, -7.779057], [110.369652, -7.779057], [110.369652, -7.779057], [110.369652, -7.77906], [110.369659, -7.77905], [110.369659, -7.77905], [110.369659, -7.77905], [110.369659, -7.77905], [110.369659, -7.77905], [110.369659, -7.77905], [110.369652, -7.77906], [110.369659, -7.77905], [110.369652, -7.77906], [110.369659, -7.77905], [110.369659, -7.77905], [110.369659, -7.77905], [110.369652, -7.779057], [110.369659, -7.77905], [110.369659, -7.77905], [110.369652, -7.77906], [110.369652, -7.77906], [110.369652, -7.77906], [110.369652, -7.779057], [110.369652, -7.77906], [110.369652, -7.77906], [110.369652, -7.77906], [110.369652, -7.77906], [110.369652, -7.779057], [110.369652, -7.77906], [110.369652, -7.77906], [110.369652, -7.77906], [110.369652, -7.77906], [110.369659, -7.77905], [110.369652, -7.77906], [110.369652, -7.77906], [110.369652, -7.77906], [110.369652, -7.779057], [110.369652, -7.77906], [110.369652, -7.77906], [110.369652, -7.77906], [110.369652, -7.77906], [110.369652, -7.77906], [110.369652, -7.77906], [110.369652, -7.77906], [110.369652, -7.77906], [110.369659, -7.77907], [110.369652, -7.779057], [110.369659, -7.779068], [110.369659, -7.779068], [110.369659, -7.77905], [110.369659, -7.779068], [110.369659, -7.77905], [110.369659, -7.77905], [110.369659, -7.77905], [110.369652, -7.779057], [110.369652, -7.77908], [110.369652, -7.77908], [110.369652, -7.779057], [110.369652, -7.779057], [110.369652, -7.779057], [110.369652, -7.77908], [110.369652, -7.779057], [110.369652, -7.779057], [110.369652, -7.779057], [110.369659, -7.77907], [110.369652, -7.77906], [110.369652, -7.779057], [110.369652, -7.77906], [110.369652, -7.77906], [110.369652, -7.77906], [110.369652, -7.77906], [110.369652, -7.77906], [110.369652, -7.77906], [110.369652, -7.77906], [110.369652, -7.77906], [110.369652, -7.77906], [110.369652, -7.77906], [110.369652, -7.77906], [110.369652, -7.77906], [110.369652, -7.77906], [110.369652, -7.77906], [110.369659, -7.77905], [110.369652, -7.779057], [110.369652, -7.779057], [110.369652, -7.779057], [110.369652, -7.779057], [110.369652, -7.779057], [110.369652, -7.77906], [110.369659, -7.77905], [110.369652, -7.77906], [110.369652, -7.77906], [110.369652, -7.77906], [110.369652, -7.77906], [110.369652, -7.77906], [110.369652, -7.77906], [110.369652, -7.77906], [110.369652, -7.779057], [110.369652, -7.77906], [110.369659, -7.77905], [110.369652, -7.77906], [110.369652, -7.77906], [110.369652, -7.77906], [110.369652, -7.77906], [110.369659, -7.77905], [110.369652, -7.77906], [110.369652, -7.77906], [110.369659, -7.77905], [110.369652, -7.77906], [110.369652, -7.77908], [110.369652, -7.77906], [110.369659, -7.77905], [110.369652, -7.77906], [110.369652, -7.77906], [110.369652, -7.77906], [110.369659, -7.77905], [110.369652, -7.77906], [110.369652, -7.77906], [110.369652, -7.77906], [110.369652, -7.779057], [110.369652, -7.779057]]}}, {"type": "Feature", "properties": {"device": "bc0db78f-86a2-461c-a13f-6c20efeccc57", "color": "#F5C542", "kind": "move", "n": 2, "gap_label": ""}, "geometry": {"type": "LineString", "coordinates": [[110.152908, -7.861043], [110.152908, -7.857767]]}}, {"type": "Feature", "properties": {"device": "bc0db78f-86a2-461c-a13f-6c20efeccc57", "color": "#F5C542", "kind": "gap", "n": 2, "gap_label": "+13h 45m"}, "geometry": {"type": "LineString", "coordinates": [[110.152908, -7.857767], [110.366631, -7.78573]]}}, {"type": "Feature", "properties": {"device": "bc0db78f-86a2-461c-a13f-6c20efeccc57", "color": "#F5C542", "kind": "move", "n": 12, "gap_label": ""}, "geometry": {"type": "LineString", "coordinates": [[110.366631, -7.78573], [110.366631, -7.78576], [110.366638, -7.78576], [110.366638, -7.78576], [110.366631, -7.78575], [110.366638, -7.78576], [110.366638, -7.78575], [110.366631, -7.78575], [110.366631, -7.78575], [110.366638, -7.78576], [110.366631, -7.78575], [110.366631, -7.78575]]}}, {"type": "Feature", "properties": {"device": "bc0db78f-86a2-461c-a13f-6c20efeccc57", "color": "#F5C542", "kind": "gap", "n": 2, "gap_label": "+4h 09m"}, "geometry": {"type": "LineString", "coordinates": [[110.366631, -7.78575], [110.366638, -7.78576]]}}, {"type": "Feature", "properties": {"device": "bc0db78f-86a2-461c-a13f-6c20efeccc57", "color": "#F5C542", "kind": "move", "n": 19, "gap_label": ""}, "geometry": {"type": "LineString", "coordinates": [[110.366638, -7.78576], [110.366638, -7.78576], [110.366638, -7.78575], [110.366638, -7.78576], [110.366631, -7.78575], [110.366631, -7.78575], [110.366638, -7.78576], [110.366631, -7.78576], [110.366638, -7.78574], [110.366638, -7.78573], [110.366631, -7.78575], [110.366638, -7.78576], [110.366638, -7.78573], [110.366638, -7.78576], [110.366638, -7.78576], [110.366638, -7.78574], [110.366638, -7.78576], [110.366638, -7.78573], [110.366638, -7.78576]]}}, {"type": "Feature", "properties": {"device": "90189944-6c95-40f2-94cd-04cea2c57a46", "color": "#8172B3", "kind": "move", "n": 42, "gap_label": ""}, "geometry": {"type": "LineString", "coordinates": [[110.401939, -7.76752], [110.401939, -7.76752], [110.401932, -7.76751], [110.401932, -7.767503], [110.401932, -7.767503], [110.401932, -7.767503], [110.401932, -7.767503], [110.401932, -7.767503], [110.401932, -7.767503], [110.401932, -7.767503], [110.401932, -7.767503], [110.401932, -7.767503], [110.401932, -7.767503], [110.401932, -7.767503], [110.401939, -7.76752], [110.401939, -7.76751], [110.401939, -7.76751], [110.401939, -7.76752], [110.401932, -7.76751], [110.401932, -7.767503], [110.401932, -7.76751], [110.401932, -7.76752], [110.401932, -7.76751], [110.401932, -7.76752], [110.401932, -7.767503], [110.401932, -7.76751], [110.401932, -7.76751], [110.401932, -7.76752], [110.401932, -7.76751], [110.401932, -7.76751], [110.401932, -7.767503], [110.401932, -7.76752], [110.401932, -7.76751], [110.401932, -7.76751], [110.401932, -7.767503], [110.401939, -7.76751], [110.401939, -7.76752], [110.401939, -7.76751], [110.401939, -7.76751], [110.401939, -7.76752], [110.401939, -7.76752], [110.401939, -7.76751]]}}, {"type": "Feature", "properties": {"device": "90189944-6c95-40f2-94cd-04cea2c57a46", "color": "#8172B3", "kind": "gap", "n": 2, "gap_label": "+2h 47m"}, "geometry": {"type": "LineString", "coordinates": [[110.401939, -7.76751], [110.401932, -7.767503]]}}, {"type": "Feature", "properties": {"device": "90189944-6c95-40f2-94cd-04cea2c57a46", "color": "#8172B3", "kind": "move", "n": 211, "gap_label": ""}, "geometry": {"type": "LineString", "coordinates": [[110.401932, -7.767503], [110.401932, -7.767503], [110.365326, -7.793485], [110.365326, -7.793485], [110.365311, -7.79348], [110.365318, -7.79347], [110.365318, -7.79347], [110.365318, -7.79347], [110.365326, -7.793485], [110.365311, -7.79348], [110.365326, -7.793485], [110.365326, -7.793485], [110.365311, -7.79348], [110.365326, -7.793485], [110.365326, -7.793485], [110.365311, -7.79348], [110.365311, -7.79348], [110.365311, -7.79348], [110.365311, -7.79348], [110.365326, -7.793485], [110.365326, -7.793485], [110.365326, -7.793485], [110.365311, -7.79348], [110.365326, -7.793485], [110.365326, -7.793485], [110.365318, -7.79347], [110.365326, -7.793485], [110.365311, -7.79348], [110.365311, -7.79348], [110.365311, -7.79348], [110.365318, -7.793476], [110.365311, -7.79348], [110.365311, -7.79348], [110.365311, -7.79348], [110.365311, -7.79348], [110.365311, -7.79348], [110.365311, -7.79348], [110.365311, -7.79348], [110.365311, -7.79348], [110.365311, -7.79348], [110.365311, -7.79348], [110.365311, -7.79348], [110.365311, -7.79348], [110.365318, -7.793476], [110.365311, -7.79348], [110.365311, -7.79348], [110.365311, -7.79348], [110.365326, -7.793485], [110.365326, -7.793485], [110.365318, -7.79349], [110.365318, -7.79349], [110.365318, -7.79349], [110.365318, -7.79349], [110.365318, -7.79349], [110.365318, -7.79349], [110.365318, -7.79349], [110.365318, -7.79349], [110.365318, -7.79349], [110.365326, -7.793485], [110.365318, -7.79349], [110.365311, -7.79349], [110.365311, -7.79349], [110.365311, -7.79349], [110.365311, -7.79349], [110.365326, -7.793485], [110.365311, -7.79349], [110.365326, -7.793485], [110.365326, -7.793485], [110.365326, -7.793485], [110.365311, -7.79349], [110.365311, -7.79349], [110.365326, -7.793485], [110.365311, -7.79349], [110.365311, -7.79349], [110.365311, -7.79349], [110.365326, -7.793485], [110.365311, -7.79349], [110.365318, -7.79349], [110.365311, -7.79349], [110.365326, -7.793485], [110.365623, -7.793894], [110.365623, -7.793894], [110.365623, -7.7939], [110.365623, -7.7939], [110.365623, -7.7939], [110.365623, -7.793894], [110.365623, -7.793894], [110.365623, -7.7939], [110.365623, -7.793894], [110.365623, -7.7939], [110.365623, -7.793894], [110.365623, -7.793894], [110.365623, -7.7939], [110.365623, -7.793894], [110.365623, -7.793894], [110.365623, -7.793894], [110.365623, -7.793894], [110.365623, -7.7939], [110.365623, -7.793894], [110.365623, -7.7939], [110.365623, -7.793894], [110.365623, -7.793894], [110.365608, -7.7939], [110.365623, -7.7939], [110.365623, -7.7939], [110.365608, -7.7939], [110.365608, -7.7939], [110.365608, -7.7939], [110.365608, -7.7939], [110.365608, -7.7939], [110.365623, -7.7939], [110.365608, -7.7939], [110.365608, -7.7939], [110.365608, -7.7939], [110.365608, -7.7939], [110.365608, -7.7939], [110.365623, -7.793894], [110.365623, -7.793894], [110.365623, -7.793894], [110.365623, -7.793894], [110.365623, -7.793894], [110.365608, -7.7939], [110.365608, -7.7939], [110.365623, -7.793894], [110.365608, -7.7939], [110.365623, -7.793894], [110.365608, -7.7939], [110.365623, -7.793894], [110.36673, -7.792945], [110.36673, -7.792945], [110.366737, -7.79296], [110.366737, -7.79296], [110.366737, -7.79296], [110.366737, -7.79296], [110.366737, -7.79296], [110.366737, -7.79296], [110.366737, -7.79296], [110.366737, -7.79296], [110.366737, -7.79296], [110.366737, -7.79296], [110.36673, -7.79295], [110.366737, -7.79296], [110.366737, -7.79296], [110.366737, -7.79296], [110.366737, -7.79296], [110.366737, -7.79296], [110.366737, -7.79296], [110.366737, -7.792936], [110.366737, -7.79296], [110.36673, -7.79295], [110.366737, -7.79296], [110.36673, -7.79295], [110.36673, -7.79295], [110.366737, -7.79296], [110.366737, -7.79296], [110.36673, -7.79293], [110.366737, -7.79296], [110.36673, -7.79295], [110.366737, -7.79296], [110.366737, -7.79296], [110.366737, -7.79296], [110.366737, -7.79294], [110.36673, -7.79295], [110.36673, -7.79295], [110.36673, -7.79295], [110.36673, -7.79295], [110.36673, -7.792945], [110.366623, -7.79357], [110.366623, -7.793583], [110.366623, -7.793583], [110.366623, -7.793583], [110.366623, -7.793583], [110.366623, -7.79357], [110.366623, -7.793583], [110.366623, -7.79357], [110.366623, -7.79359], [110.366623, -7.793583], [110.366623, -7.793583], [110.366623, -7.793583], [110.366623, -7.79357], [110.366623, -7.793583], [110.366623, -7.79357], [110.366623, -7.793583], [110.366623, -7.793583], [110.366623, -7.793583], [110.366623, -7.793583], [110.366623, -7.793583], [110.366623, -7.793583], [110.366623, -7.79357], [110.366623, -7.79359], [110.366623, -7.793583], [110.366623, -7.79357], [110.366623, -7.793583], [110.366608, -7.79359], [110.366608, -7.79359], [110.366623, -7.793583], [110.366608, -7.79359], [110.366608, -7.79358], [110.366623, -7.793583], [110.366608, -7.79359], [110.366623, -7.793583], [110.366623, -7.793583], [110.366608, -7.79358], [110.366608, -7.79359], [110.366623, -7.793583], [110.366608, -7.79359], [110.366623, -7.793583], [110.366623, -7.79359], [110.366608, -7.79358], [110.366623, -7.79359], [110.366623, -7.79359]]}}, {"type": "Feature", "properties": {"device": "90189944-6c95-40f2-94cd-04cea2c57a46", "color": "#8172B3", "kind": "gap", "n": 2, "gap_label": "+3h 11m"}, "geometry": {"type": "LineString", "coordinates": [[110.366623, -7.79359], [110.401886, -7.767405]]}}, {"type": "Feature", "properties": {"device": "90189944-6c95-40f2-94cd-04cea2c57a46", "color": "#8172B3", "kind": "move", "n": 2, "gap_label": ""}, "geometry": {"type": "LineString", "coordinates": [[110.401886, -7.767405], [110.401886, -7.767405]]}}, {"type": "Feature", "properties": {"device": "90189944-6c95-40f2-94cd-04cea2c57a46", "color": "#8172B3", "kind": "gap", "n": 2, "gap_label": ""}, "geometry": {"type": "LineString", "coordinates": [[110.401886, -7.767405], [110.401886, -7.767405]]}}, {"type": "Feature", "properties": {"device": "90189944-6c95-40f2-94cd-04cea2c57a46", "color": "#8172B3", "kind": "move", "n": 4, "gap_label": ""}, "geometry": {"type": "LineString", "coordinates": [[110.401886, -7.767405], [110.401886, -7.767405], [110.401886, -7.767405], [110.401886, -7.767405]]}}, {"type": "Feature", "properties": {"device": "e4edbd23-f207-46b3-bd15-ee510925876b", "color": "#CC79A7", "kind": "move", "n": 41, "gap_label": ""}, "geometry": {"type": "LineString", "coordinates": [[110.443703, -7.715147], [110.443604, -7.714971], [110.443604, -7.714971], [110.443703, -7.715147], [110.443703, -7.715147], [110.443703, -7.715147], [110.443604, -7.714971], [110.443604, -7.714971], [110.443604, -7.714971], [110.443604, -7.714971], [110.443604, -7.714971], [110.443604, -7.714971], [110.443604, -7.714971], [110.443604, -7.714971], [110.443604, -7.714971], [110.443604, -7.714971], [110.443604, -7.714971], [110.443604, -7.714971], [110.443604, -7.714971], [110.443604, -7.714971], [110.443604, -7.714971], [110.443604, -7.714971], [110.443604, -7.714971], [110.443604, -7.714971], [110.443604, -7.714971], [110.443604, -7.714971], [110.443604, -7.714971], [110.443604, -7.714971], [110.443604, -7.714971], [110.443604, -7.714971], [110.443604, -7.714971], [110.443604, -7.714971], [110.443703, -7.715147], [110.443703, -7.715147], [110.443604, -7.714971], [110.443604, -7.714971], [110.443703, -7.715147], [110.443703, -7.715147], [110.443604, -7.714971], [110.443604, -7.714971], [110.443626, -7.71497]]}}, {"type": "Feature", "properties": {"device": "e4edbd23-f207-46b3-bd15-ee510925876b", "color": "#CC79A7", "kind": "gap", "n": 2, "gap_label": ""}, "geometry": {"type": "LineString", "coordinates": [[110.443626, -7.71497], [110.443626, -7.71497]]}}, {"type": "Feature", "properties": {"device": "e4edbd23-f207-46b3-bd15-ee510925876b", "color": "#CC79A7", "kind": "move", "n": 7, "gap_label": ""}, "geometry": {"type": "LineString", "coordinates": [[110.443626, -7.71497], [110.443626, -7.71497], [110.443626, -7.71497], [110.443626, -7.71497], [110.443626, -7.71497], [110.443626, -7.71497], [110.44368, -7.715148]]}}, {"type": "Feature", "properties": {"device": "e4edbd23-f207-46b3-bd15-ee510925876b", "color": "#CC79A7", "kind": "gap", "n": 2, "gap_label": "+1h 27m"}, "geometry": {"type": "LineString", "coordinates": [[110.44368, -7.715148], [110.342812, -7.889909]]}}, {"type": "Feature", "properties": {"device": "e4edbd23-f207-46b3-bd15-ee510925876b", "color": "#CC79A7", "kind": "move", "n": 5, "gap_label": ""}, "geometry": {"type": "LineString", "coordinates": [[110.342812, -7.889909], [110.342812, -7.889909], [110.342812, -7.889909], [110.342812, -7.889909], [110.342812, -7.889909]]}}, {"type": "Feature", "properties": {"device": "e4edbd23-f207-46b3-bd15-ee510925876b", "color": "#CC79A7", "kind": "gap", "n": 2, "gap_label": "+1h 25m"}, "geometry": {"type": "LineString", "coordinates": [[110.342812, -7.889909], [110.342812, -7.889909]]}}, {"type": "Feature", "properties": {"device": "e4edbd23-f207-46b3-bd15-ee510925876b", "color": "#CC79A7", "kind": "move", "n": 21, "gap_label": ""}, "geometry": {"type": "LineString", "coordinates": [[110.342812, -7.889909], [110.342812, -7.889909], [110.342812, -7.889909], [110.342812, -7.889929], [110.342812, -7.889929], [110.342812, -7.889929], [110.342812, -7.889909], [110.342812, -7.889909], [110.342812, -7.889909], [110.342812, -7.889929], [110.342812, -7.889929], [110.342812, -7.889929], [110.342812, -7.889929], [110.342812, -7.889929], [110.342812, -7.889929], [110.342812, -7.889929], [110.342812, -7.889929], [110.342812, -7.889909], [110.342812, -7.889929], [110.342812, -7.889929], [110.342812, -7.889929]]}}, {"type": "Feature", "properties": {"device": "e4edbd23-f207-46b3-bd15-ee510925876b", "color": "#CC79A7", "kind": "gap", "n": 2, "gap_label": "+1h 19m"}, "geometry": {"type": "LineString", "coordinates": [[110.342812, -7.889929], [110.342812, -7.889909]]}}, {"type": "Feature", "properties": {"device": "e4edbd23-f207-46b3-bd15-ee510925876b", "color": "#CC79A7", "kind": "move", "n": 10, "gap_label": ""}, "geometry": {"type": "LineString", "coordinates": [[110.342812, -7.889909], [110.342812, -7.889909], [110.342812, -7.889909], [110.342812, -7.889909], [110.342812, -7.889909], [110.342812, -7.889909], [110.342812, -7.889909], [110.342812, -7.889909], [110.342812, -7.889909], [110.342812, -7.889909]]}}, {"type": "Feature", "properties": {"device": "e4edbd23-f207-46b3-bd15-ee510925876b", "color": "#CC79A7", "kind": "gap", "n": 2, "gap_label": ""}, "geometry": {"type": "LineString", "coordinates": [[110.342812, -7.889909], [110.342812, -7.889909]]}}, {"type": "Feature", "properties": {"device": "e4edbd23-f207-46b3-bd15-ee510925876b", "color": "#CC79A7", "kind": "move", "n": 14, "gap_label": ""}, "geometry": {"type": "LineString", "coordinates": [[110.342812, -7.889909], [110.342812, -7.889909], [110.342812, -7.889909], [110.342812, -7.889909], [110.342812, -7.889909], [110.342812, -7.889909], [110.342812, -7.889909], [110.342812, -7.889909], [110.342812, -7.889909], [110.342812, -7.889909], [110.342812, -7.889909], [110.342812, -7.889909], [110.342812, -7.889909], [110.342812, -7.889909]]}}, {"type": "Feature", "properties": {"device": "e4edbd23-f207-46b3-bd15-ee510925876b", "color": "#CC79A7", "kind": "gap", "n": 2, "gap_label": "+2h 46m"}, "geometry": {"type": "LineString", "coordinates": [[110.342812, -7.889909], [110.461967, -7.698752]]}}, {"type": "Feature", "properties": {"device": "e4edbd23-f207-46b3-bd15-ee510925876b", "color": "#CC79A7", "kind": "gap", "n": 2, "gap_label": "+4h 13m"}, "geometry": {"type": "LineString", "coordinates": [[110.461967, -7.698752], [110.461967, -7.698752]]}}, {"type": "Feature", "properties": {"device": "e4edbd23-f207-46b3-bd15-ee510925876b", "color": "#CC79A7", "kind": "gap", "n": 2, "gap_label": "+4h 20m"}, "geometry": {"type": "LineString", "coordinates": [[110.461967, -7.698752], [110.461967, -7.698752]]}}, {"type": "Feature", "properties": {"device": "e4edbd23-f207-46b3-bd15-ee510925876b", "color": "#CC79A7", "kind": "move", "n": 2, "gap_label": ""}, "geometry": {"type": "LineString", "coordinates": [[110.461967, -7.698752], [110.461967, -7.698752]]}}, {"type": "Feature", "properties": {"device": "f92301f7-e229-4feb-96b8-dc9482cfd7c6", "color": "#D55E00", "kind": "move", "n": 13, "gap_label": ""}, "geometry": {"type": "LineString", "coordinates": [[110.430107, -7.82675], [110.430107, -7.82675], [110.430107, -7.82673], [110.430107, -7.82675], [110.430107, -7.82675], [110.430107, -7.82673], [110.430107, -7.82673], [110.430122, -7.826736], [110.430122, -7.826736], [110.430122, -7.826736], [110.430107, -7.82673], [110.430122, -7.826736], [110.430107, -7.82673]]}}, {"type": "Feature", "properties": {"device": "f92301f7-e229-4feb-96b8-dc9482cfd7c6", "color": "#D55E00", "kind": "gap", "n": 2, "gap_label": "+6h 35m"}, "geometry": {"type": "LineString", "coordinates": [[110.430107, -7.82673], [110.405861, -7.86465]]}}, {"type": "Feature", "properties": {"device": "f92301f7-e229-4feb-96b8-dc9482cfd7c6", "color": "#D55E00", "kind": "move", "n": 21, "gap_label": ""}, "geometry": {"type": "LineString", "coordinates": [[110.405861, -7.86465], [110.405861, -7.86465], [110.405861, -7.86465], [110.405861, -7.86465], [110.405853, -7.86468], [110.405853, -7.86468], [110.405861, -7.86465], [110.405861, -7.86465], [110.405861, -7.86465], [110.405861, -7.86465], [110.405861, -7.86465], [110.405861, -7.86465], [110.405861, -7.86465], [110.405861, -7.86465], [110.405853, -7.86468], [110.405861, -7.86465], [110.405861, -7.86467], [110.405861, -7.86467], [110.405861, -7.86467], [110.405861, -7.86467], [110.405861, -7.86467]]}}, {"type": "Feature", "properties": {"device": "cb5a0538-1d01-43dd-adf0-ce1f04a1ecb3", "color": "#0072B2", "kind": "move", "n": 57, "gap_label": ""}, "geometry": {"type": "LineString", "coordinates": [[110.38884, -7.847936], [110.38884, -7.847936], [110.38884, -7.847936], [110.38884, -7.847936], [110.17601, -7.857026], [110.17601, -7.857026], [110.17601, -7.857026], [110.17601, -7.857026], [110.17601, -7.857026], [110.17601, -7.857026], [110.17601, -7.857026], [110.17601, -7.857026], [110.17601, -7.857026], [110.38884, -7.847936], [110.38884, -7.847936], [110.38884, -7.847936], [110.38884, -7.847936], [110.38884, -7.847936], [110.38884, -7.847936], [110.38884, -7.847936], [110.38884, -7.847936], [110.38884, -7.847936], [110.38884, -7.847936], [110.38884, -7.847936], [110.38884, -7.847936], [110.38884, -7.847936], [110.17601, -7.857026], [110.17601, -7.857026], [110.38884, -7.847936], [110.38884, -7.847936], [110.38884, -7.847936], [110.38884, -7.847936], [110.38884, -7.847936], [110.38884, -7.847936], [110.38884, -7.847936], [110.360001, -7.78], [110.38884, -7.847936], [110.38884, -7.847936], [110.38884, -7.847936], [110.38884, -7.847936], [110.38884, -7.847936], [110.38884, -7.847936], [110.38884, -7.847936], [110.38884, -7.847936], [110.38884, -7.847936], [110.38884, -7.847936], [110.38884, -7.847936], [110.360001, -7.78], [110.360001, -7.78], [110.360001, -7.78], [110.38884, -7.847936], [110.38884, -7.847936], [110.38884, -7.847936], [110.360001, -7.78], [110.38884, -7.847936], [110.38884, -7.847936], [110.38884, -7.847936]]}}, {"type": "Feature", "properties": {"device": "cb5a0538-1d01-43dd-adf0-ce1f04a1ecb3", "color": "#0072B2", "kind": "gap", "n": 2, "gap_label": ""}, "geometry": {"type": "LineString", "coordinates": [[110.38884, -7.847936], [110.38884, -7.847936]]}}, {"type": "Feature", "properties": {"device": "cb5a0538-1d01-43dd-adf0-ce1f04a1ecb3", "color": "#0072B2", "kind": "move", "n": 14, "gap_label": ""}, "geometry": {"type": "LineString", "coordinates": [[110.38884, -7.847936], [110.38884, -7.847936], [110.38884, -7.847936], [110.38884, -7.847936], [110.38884, -7.847936], [110.360001, -7.78], [110.38884, -7.847936], [110.38884, -7.847936], [110.38884, -7.847936], [110.38884, -7.847936], [110.38884, -7.847936], [110.38884, -7.847936], [110.360001, -7.78], [110.360001, -7.78]]}}]}